[{"OBJECT_NAME":"ONEWEB-0638","OBJECT_ID":"2023-029G","EPOCH":"2026-05-27T07:24:09.238464","MEAN_MOTION":13.14501987,"ECCENTRICITY":0.0002191,"INCLINATION":87.8933,"RA_OF_ASC_NODE":293.9173,"ARG_OF_PERICENTER":85.2547,"MEAN_ANOMALY":274.8833,"EPHEMERIS_TYPE":0,"CLASSIFICATION_TYPE":"U","NORAD_CAT_ID":55802,"ELEMENT_SET_NO":999,"REV_AT_EPOCH":15665,"BSTAR":0.00049389,"MEAN_MOTION_DOT":1.96e-06,"MEAN_MOTION_DDOT":0.0},{"OBJECT_NAME":"ONEWEB-0639","OBJECT_ID":"2023-029H","EPOCH":"2026-05-26T22:54:59.409792","MEAN_MOTION":13.19725984,"ECCENTRICITY":9.36e-05,"INCLINATION":87.9151,"RA_OF_ASC_NODE":309.2088,"ARG_OF_PERICENTER":71.0808,"MEAN_ANOMALY":289.0426,"EPHEMERIS_TYPE":0,"CLASSIFICATION_TYPE":"U","NORAD_CAT_ID":55803,"ELEMENT_SET_NO":999,"REV_AT_EPOCH":15610,"BSTAR":0.000161,"MEAN_MOTION_DOT":7.7e-07,"MEAN_MOTION_DDOT":0.0},{"OBJECT_NAME":"ONEWEB-0640","OBJECT_ID":"2023-029J","EPOCH":"2026-05-26T22:29:48.334272","MEAN_MOTION":13.1450144,"ECCENTRICITY":0.0001972,"INCLINATION":87.8934,"RA_OF_ASC_NODE":293.9824,"ARG_OF_PERICENTER":76.4642,"MEAN_ANOMALY":283.6707,"EPHEMERIS_TYPE":0,"CLASSIFICATION_TYPE":"U","NORAD_CAT_ID":55804,"ELEMENT_SET_NO":999,"REV_AT_EPOCH":15662,"BSTAR":0.00057247,"MEAN_MOTION_DOT":2.25e-06,"MEAN_MOTION_DDOT":0.0},{"OBJECT_NAME":"ONEWEB-0641","OBJECT_ID":"2023-029K","EPOCH":"2026-05-26T22:48:09.173952","MEAN_MOTION":13.19726474,"ECCENTRICITY":0.0001616,"INCLINATION":87.9158,"RA_OF_ASC_NODE":309.1975,"ARG_OF_PERICENTER":92.9658,"MEAN_ANOMALY":267.166,"EPHEMERIS_TYPE":0,"CLASSIFICATION_TYPE":"U","NORAD_CAT_ID":55805,"ELEMENT_SET_NO":999,"REV_AT_EPOCH":15611,"BSTAR":0.00010681,"MEAN_MOTION_DOT":5.6e-07,"MEAN_MOTION_DDOT":0.0},{"OBJECT_NAME":"ONEWEB-0642","OBJECT_ID":"2023-029L","EPOCH":"2026-05-27T00:30:30.496320","MEAN_MOTION":13.1972536,"ECCENTRICITY":9.58e-05,"INCLINATION":87.9152,"RA_OF_ASC_NODE":309.1965,"ARG_OF_PERICENTER":89.8976,"MEAN_ANOMALY":270.2267,"EPHEMERIS_TYPE":0,"CLASSIFICATION_TYPE":"U","NORAD_CAT_ID":55806,"ELEMENT_SET_NO":999,"REV_AT_EPOCH":15611,"BSTAR":5.7648999999999996e-05,"MEAN_MOTION_DOT":3.6e-07,"MEAN_MOTION_DDOT":0.0},{"OBJECT_NAME":"ONEWEB-0643","OBJECT_ID":"2023-029M","EPOCH":"2026-05-26T19:56:49.062624","MEAN_MOTION":13.1450207,"ECCENTRICITY":0.0001194,"INCLINATION":87.8932,"RA_OF_ASC_NODE":293.9907,"ARG_OF_PERICENTER":108.2329,"MEAN_ANOMALY":251.8931,"EPHEMERIS_TYPE":0,"CLASSIFICATION_TYPE":"U","NORAD_CAT_ID":55807,"ELEMENT_SET_NO":999,"REV_AT_EPOCH":15658,"BSTAR":-0.00035174,"MEAN_MOTION_DOT":-1.18e-06,"MEAN_MOTION_DDOT":0.0},{"OBJECT_NAME":"ONEWEB-0644","OBJECT_ID":"2023-029N","EPOCH":"2026-05-27T00:23:39.980544","MEAN_MOTION":13.19726154,"ECCENTRICITY":0.0001418,"INCLINATION":87.915,"RA_OF_ASC_NODE":309.1994,"ARG_OF_PERICENTER":93.997,"MEAN_ANOMALY":266.1325,"EPHEMERIS_TYPE":0,"CLASSIFICATION_TYPE":"U","NORAD_CAT_ID":55808,"ELEMENT_SET_NO":999,"REV_AT_EPOCH":15611,"BSTAR":0.00025073,"MEAN_MOTION_DOT":1.13e-06,"MEAN_MOTION_DDOT":0.0},{"OBJECT_NAME":"ONEWEB-0645","OBJECT_ID":"2023-029P","EPOCH":"2026-05-26T23:06:20.648736","MEAN_MOTION":13.19726588,"ECCENTRICITY":0.0001565,"INCLINATION":87.9151,"RA_OF_ASC_NODE":309.2069,"ARG_OF_PERICENTER":78.7978,"MEAN_ANOMALY":281.333,"EPHEMERIS_TYPE":0,"CLASSIFICATION_TYPE":"U","NORAD_CAT_ID":55809,"ELEMENT_SET_NO":999,"REV_AT_EPOCH":15610,"BSTAR":0.00011650000000000001,"MEAN_MOTION_DOT":6e-07,"MEAN_MOTION_DDOT":0.0},{"OBJECT_NAME":"ONEWEB-0646","OBJECT_ID":"2023-029Q","EPOCH":"2026-05-26T23:31:22.863072","MEAN_MOTION":13.19725615,"ECCENTRICITY":0.0001487,"INCLINATION":87.915,"RA_OF_ASC_NODE":309.2036,"ARG_OF_PERICENTER":94.5348,"MEAN_ANOMALY":265.5955,"EPHEMERIS_TYPE":0,"CLASSIFICATION_TYPE":"U","NORAD_CAT_ID":55810,"ELEMENT_SET_NO":999,"REV_AT_EPOCH":15609,"BSTAR":-2.8757e-05,"MEAN_MOTION_DOT":1e-08,"MEAN_MOTION_DDOT":0.0},{"OBJECT_NAME":"ONEWEB-0648","OBJECT_ID":"2023-029R","EPOCH":"2026-05-26T22:50:21.905088","MEAN_MOTION":13.14503606,"ECCENTRICITY":0.0001186,"INCLINATION":87.8946,"RA_OF_ASC_NODE":293.9382,"ARG_OF_PERICENTER":68.9817,"MEAN_ANOMALY":291.144,"EPHEMERIS_TYPE":0,"CLASSIFICATION_TYPE":"U","NORAD_CAT_ID":55811,"ELEMENT_SET_NO":999,"REV_AT_EPOCH":15660,"BSTAR":6.829400000000001e-05,"MEAN_MOTION_DOT":3.8e-07,"MEAN_MOTION_DDOT":0.0},{"OBJECT_NAME":"ONEWEB-0649","OBJECT_ID":"2023-029S","EPOCH":"2026-05-27T00:07:45.791904","MEAN_MOTION":13.19726689,"ECCENTRICITY":0.0001614,"INCLINATION":87.9151,"RA_OF_ASC_NODE":309.1961,"ARG_OF_PERICENTER":87.3947,"MEAN_ANOMALY":272.7371,"EPHEMERIS_TYPE":0,"CLASSIFICATION_TYPE":"U","NORAD_CAT_ID":55812,"ELEMENT_SET_NO":999,"REV_AT_EPOCH":15613,"BSTAR":-9.3613e-05,"MEAN_MOTION_DOT":-2.5e-07,"MEAN_MOTION_DDOT":0.0},{"OBJECT_NAME":"ONEWEB-0650","OBJECT_ID":"2023-029T","EPOCH":"2026-05-27T00:00:56.559168","MEAN_MOTION":13.19726627,"ECCENTRICITY":0.0001326,"INCLINATION":87.9151,"RA_OF_ASC_NODE":309.199,"ARG_OF_PERICENTER":92.1214,"MEAN_ANOMALY":268.0071,"EPHEMERIS_TYPE":0,"CLASSIFICATION_TYPE":"U","NORAD_CAT_ID":55813,"ELEMENT_SET_NO":999,"REV_AT_EPOCH":15610,"BSTAR":0.00030880999999999997,"MEAN_MOTION_DOT":1.37e-06,"MEAN_MOTION_DDOT":0.0},{"OBJECT_NAME":"ONEWEB-0652","OBJECT_ID":"2023-029U","EPOCH":"2026-05-26T22:22:58.093248","MEAN_MOTION":13.14504088,"ECCENTRICITY":0.0001958,"INCLINATION":87.8935,"RA_OF_ASC_NODE":293.9499,"ARG_OF_PERICENTER":98.9559,"MEAN_ANOMALY":261.1792,"EPHEMERIS_TYPE":0,"CLASSIFICATION_TYPE":"U","NORAD_CAT_ID":55814,"ELEMENT_SET_NO":999,"REV_AT_EPOCH":15657,"BSTAR":0.0004684,"MEAN_MOTION_DOT":1.86e-06,"MEAN_MOTION_DDOT":0.0},{"OBJECT_NAME":"ONEWEB-0653","OBJECT_ID":"2023-029V","EPOCH":"2026-05-26T22:00:06.951168","MEAN_MOTION":13.14502228,"ECCENTRICITY":0.0001885,"INCLINATION":87.8942,"RA_OF_ASC_NODE":293.9506,"ARG_OF_PERICENTER":95.4293,"MEAN_ANOMALY":264.7052,"EPHEMERIS_TYPE":0,"CLASSIFICATION_TYPE":"U","NORAD_CAT_ID":55815,"ELEMENT_SET_NO":999,"REV_AT_EPOCH":15660,"BSTAR":0.00023486,"MEAN_MOTION_DOT":1e-06,"MEAN_MOTION_DDOT":0.0},{"OBJECT_NAME":"ONEWEB-0654","OBJECT_ID":"2023-029W","EPOCH":"2026-05-26T20:03:40.064832","MEAN_MOTION":13.14502706,"ECCENTRICITY":0.0002213,"INCLINATION":87.8942,"RA_OF_ASC_NODE":293.963,"ARG_OF_PERICENTER":98.3172,"MEAN_ANOMALY":261.8209,"EPHEMERIS_TYPE":0,"CLASSIFICATION_TYPE":"U","NORAD_CAT_ID":55816,"ELEMENT_SET_NO":999,"REV_AT_EPOCH":15661,"BSTAR":-0.00018236,"MEAN_MOTION_DOT":-5.5e-07,"MEAN_MOTION_DDOT":0.0},{"OBJECT_NAME":"ONEWEB-0656","OBJECT_ID":"2023-029X","EPOCH":"2026-05-27T07:05:35.201184","MEAN_MOTION":13.20772057,"ECCENTRICITY":0.0002331,"INCLINATION":87.9181,"RA_OF_ASC_NODE":278.5943,"ARG_OF_PERICENTER":100.6632,"MEAN_ANOMALY":259.4764,"EPHEMERIS_TYPE":0,"CLASSIFICATION_TYPE":"U","NORAD_CAT_ID":55817,"ELEMENT_SET_NO":999,"REV_AT_EPOCH":15839,"BSTAR":0.00021883,"MEAN_MOTION_DOT":1.02e-06,"MEAN_MOTION_DDOT":0.0}]