ONEWEB-0638             
1 55802U 23029G   26147.30844026  .00000196  00000+0  49389-3 0  9994
2 55802  87.8933 293.9173 0002191  85.2547 274.8833 13.14501987156655
ONEWEB-0639             
1 55803U 23029H   26146.95485428  .00000077  00000+0  16100-3 0  9995
2 55803  87.9151 309.2088 0000936  71.0808 289.0426 13.19725984156109
ONEWEB-0640             
1 55804U 23029J   26146.93736498  .00000225  00000+0  57247-3 0  9992
2 55804  87.8934 293.9824 0001972  76.4642 283.6707 13.14501440156624
ONEWEB-0641             
1 55805U 23029K   26146.95010618  .00000056  00000+0  10681-3 0  9997
2 55805  87.9158 309.1975 0001616  92.9658 267.1660 13.19726474156116
ONEWEB-0642             
1 55806U 23029L   26147.02118630  .00000036  00000+0  57649-4 0  9994
2 55806  87.9152 309.1965 0000958  89.8976 270.2267 13.19725360156117
ONEWEB-0643             
1 55807U 23029M   26146.83112341 -.00000118  00000+0 -35174-3 0  9997
2 55807  87.8932 293.9907 0001194 108.2329 251.8931 13.14502070156580
ONEWEB-0644             
1 55808U 23029N   26147.01643496  .00000113  00000+0  25073-3 0  9999
2 55808  87.9150 309.1994 0001418  93.9970 266.1325 13.19726154156112
ONEWEB-0645             
1 55809U 23029P   26146.96273899  .00000060  00000+0  11650-3 0  9996
2 55809  87.9151 309.2069 0001565  78.7978 281.3330 13.19726588156105
ONEWEB-0646             
1 55810U 23029Q   26146.98012573  .00000001  00000+0 -28757-4 0  9993
2 55810  87.9150 309.2036 0001487  94.5348 265.5955 13.19725615156095
ONEWEB-0648             
1 55811U 23029R   26146.95164242  .00000038  00000+0  68294-4 0  9991
2 55811  87.8946 293.9382 0001186  68.9817 291.1440 13.14503606156603
ONEWEB-0649             
1 55812U 23029S   26147.00539111 -.00000025  00000+0 -93613-4 0  9991
2 55812  87.9151 309.1961 0001614  87.3947 272.7371 13.19726689156130
ONEWEB-0650             
1 55813U 23029T   26147.00065462  .00000137  00000+0  30881-3 0  9994
2 55813  87.9151 309.1990 0001326  92.1214 268.0071 13.19726627156108
ONEWEB-0652             
1 55814U 23029U   26146.93261682  .00000186  00000+0  46840-3 0  9994
2 55814  87.8935 293.9499 0001958  98.9559 261.1792 13.14504088156574
ONEWEB-0653             
1 55815U 23029V   26146.91674712  .00000100  00000+0  23486-3 0  9992
2 55815  87.8942 293.9506 0001885  95.4293 264.7052 13.14502228156604
ONEWEB-0654             
1 55816U 23029W   26146.83588038 -.00000055  00000+0 -18236-3 0  9997
2 55816  87.8942 293.9630 0002213  98.3172 261.8209 13.14502706156611
ONEWEB-0656             
1 55817U 23029X   26147.29554631  .00000102  00000+0  21883-3 0  9994
2 55817  87.9181 278.5943 0002331 100.6632 259.4764 13.20772057158394
